{
    "links": {
        "self": "http://www.neowsapp.com/rest/v1/neo/3825242?api_key=iIulBulltgU6a56xZRHN4H3l9WmuAYTsLGpBGhQ2"
    },
    "id": "3825242",
    "neo_reference_id": "3825242",
    "name": "(2018 MA)",
    "designation": "2018 MA",
    "nasa_jpl_url": "http://ssd.jpl.nasa.gov/sbdb.cgi?sstr=3825242",
    "absolute_magnitude_h": 24.3,
    "estimated_diameter": {
        "kilometers": {
            "estimated_diameter_min": 0.0366906138,
            "estimated_diameter_max": 0.0820427065
        },
        "meters": {
            "estimated_diameter_min": 36.6906137531,
            "estimated_diameter_max": 82.0427064882
        },
        "miles": {
            "estimated_diameter_min": 0.0227984834,
            "estimated_diameter_max": 0.0509789586
        },
        "feet": {
            "estimated_diameter_min": 120.3760332259,
            "estimated_diameter_max": 269.1689931548
        }
    },
    "is_potentially_hazardous_asteroid": false,
    "close_approach_data": [
        {
            "close_approach_date": "2014-06-12",
            "close_approach_date_full": "2014-Jun-12 19:07",
            "epoch_date_close_approach": 1402600020000,
            "relative_velocity": {
                "kilometers_per_second": "20.8871285982",
                "kilometers_per_hour": "75193.6629533771",
                "miles_per_hour": "46722.4179612248"
            },
            "miss_distance": {
                "astronomical": "0.2612867721",
                "lunar": "101.6405543469",
                "kilometers": "39087944.565335427",
                "miles": "24288122.4976938126"
            },
            "orbiting_body": "Earth"
        },
        {
            "close_approach_date": "2018-06-21",
            "close_approach_date_full": "2018-Jun-21 16:33",
            "epoch_date_close_approach": 1529598780000,
            "relative_velocity": {
                "kilometers_per_second": "16.6442190498",
                "kilometers_per_hour": "59919.1885792962",
                "miles_per_hour": "37231.4535925077"
            },
            "miss_distance": {
                "astronomical": "0.0492731019",
                "lunar": "19.1672366391",
                "kilometers": "7371151.092532953",
                "miles": "4580220.9012346314"
            },
            "orbiting_body": "Earth"
        },
        {
            "close_approach_date": "2018-12-27",
            "close_approach_date_full": "2018-Dec-27 21:14",
            "epoch_date_close_approach": 1545945240000,
            "relative_velocity": {
                "kilometers_per_second": "13.9896612926",
                "kilometers_per_hour": "50362.7806533172",
                "miles_per_hour": "31293.4733453903"
            },
            "miss_distance": {
                "astronomical": "0.4758086775",
                "lunar": "185.0895755475",
                "kilometers": "71179964.681516925",
                "miles": "44229179.118806565"
            },
            "orbiting_body": "Earth"
        },
        {
            "close_approach_date": "2022-06-28",
            "close_approach_date_full": "2022-Jun-28 20:38",
            "epoch_date_close_approach": 1656448680000,
            "relative_velocity": {
                "kilometers_per_second": "14.2527924812",
                "kilometers_per_hour": "51310.0529324165",
                "miles_per_hour": "31882.0715012562"
            },
            "miss_distance": {
                "astronomical": "0.174684484",
                "lunar": "67.952264276",
                "kilometers": "26132426.72844908",
                "miles": "16237937.005914104"
            },
            "orbiting_body": "Earth"
        },
        {
            "close_approach_date": "2022-12-17",
            "close_approach_date_full": "2022-Dec-17 22:47",
            "epoch_date_close_approach": 1671317220000,
            "relative_velocity": {
                "kilometers_per_second": "14.0284898927",
                "kilometers_per_hour": "50502.5636136386",
                "miles_per_hour": "31380.3290409301"
            },
            "miss_distance": {
                "astronomical": "0.3331541529",
                "lunar": "129.5969654781",
                "kilometers": "49839151.655494323",
                "miles": "30968612.8050667374"
            },
            "orbiting_body": "Earth"
        }
    ],
    "orbital_data": {
        "orbit_id": "5",
        "orbit_determination_date": "2018-08-09 07:26:36",
        "first_observation_date": "2018-06-14",
        "last_observation_date": "2018-06-20",
        "data_arc_in_days": 6,
        "observations_used": 19,
        "orbit_uncertainty": "8",
        "minimum_orbit_intersection": ".0334175",
        "jupiter_tisserand_invariant": "5.094",
        "epoch_osculation": "2458286.5",
        "eccentricity": ".2864188791393859",
        "semi_major_axis": "1.218798543768214",
        "inclination": "27.25209500162866",
        "ascending_node_longitude": "89.4795106293067",
        "orbital_period": "491.4692121434863",
        "perihelion_distance": ".8697116309654066",
        "perihelion_argument": "257.8045631709818",
        "aphelion_distance": "1.567885456571022",
        "perihelion_time": "2458353.105422457479",
        "mean_anomaly": "311.2116903923333",
        "mean_motion": ".7324975626243229",
        "equinox": "J2000",
        "orbit_class": {
            "orbit_class_type": "APO",
            "orbit_class_description": "Near-Earth asteroid orbits which cross the Earth’s orbit similar to that of 1862 Apollo",
            "orbit_class_range": "a (semi-major axis) > 1.0 AU; q (perihelion) < 1.017 AU"
        }
    },
    "is_sentry_object": false
}